{"fetched_at":"2026-03-29T16:36:15Z","count":15609,"tles":[{"name":"STARLINK-6127","line1":"1 57135U 23090AL  26087.87146819  .00001033  00000+0  48180-4 0  9993","line2":"2 57135  43.0015 154.4449 0001357 276.1336  83.9360 15.26743088153294","category":"Starlink"}]}